OBJECT_NAME,OBJECT_ID,EPOCH,MEAN_MOTION,ECCENTRICITY,INCLINATION,RA_OF_ASC_NODE,ARG_OF_PERICENTER,MEAN_ANOMALY,EPHEMERIS_TYPE,CLASSIFICATION_TYPE,NORAD_CAT_ID,ELEMENT_SET_NO,REV_AT_EPOCH,BSTAR,MEAN_MOTION_DOT,MEAN_MOTION_DDOT
BEIDOU-3 M28 (C50),2023-207A,2026-06-07T02:19:46.466976,1.86229766,.00035512,55.7441,62.6437,343.1686,16.8477,0,U,58654,999,1665,0,-.41E-6,0
BEIDOU-3 M26 (C48),2023-207B,2026-06-06T21:28:10.130880,1.86229767,.0003491,55.7459,62.6370,317.5476,42.4536,0,U,58655,999,1663,0,-.41E-6,0
GSAT0225 (GALILEO 29),2024-079A,2026-06-06T13:18:22.015872,1.70474149,.00018332,55.1131,101.3778,289.9052,250.1947,0,U,59598,999,1313,0,.22E-6,0
GSAT0227 (GALILEO 30),2024-079C,2026-06-04T02:21:06.922656,1.70474129,.00018215,55.1072,101.4444,42.0743,317.8998,0,U,59600,999,1314,0,.11E-6,0
GSAT0232 (GALILEO 32),2024-167A,2026-06-07T06:57:43.041600,1.70474499,.00059462,55.1876,221.5858,224.5135,150.0891,0,U,61182,999,1071,0,.42E-6,0
GSAT0226 (GALILEO 31),2024-167B,2026-06-07T03:32:12.253056,1.70474460,.00027149,55.1864,221.5969,222.1795,156.1712,0,U,61183,999,1068,0,.42E-6,0
BEIDOU-3 M25 (C47),2024-168B,2026-06-07T06:59:17.537280,1.86230173,.00030504,54.4830,302.5870,304.9980,78.2369,0,U,61186,999,1160,0,-.56E-6,0
BEIDOU-3 M27 (C49),2024-168C,2026-06-05T23:38:51.813024,1.86230323,.0001749,54.4796,302.6153,47.7222,315.0311,0,U,61187,999,905,0,-.55E-6,0
GPS BIII-7  (PRN 01),2024-242A,2026-06-06T20:56:20.893056,2.00571511,.00173929,54.8526,334.6000,4.1910,356.8034,0,U,62339,999,1105,0,-.64E-6,0
QZS-6 (QZSS/PRN 200),2025-023A,2026-06-07T03:35:29.494752,1.00274396,.0002044,0.0270,46.5126,37.0175,316.3924,0,U,62876,999,484,0,-.22E-5,0
COSMOS 2584 (704K),2025-042A,2026-06-04T22:32:59.851968,2.13103948,.00058312,65.0776,73.2182,229.2014,130.7692,0,U,63130,999,978,0,-.9E-7,0
GPS BIII-8  (PRN 21),2025-116A,2026-06-04T08:47:30.944832,2.00577081,.00084526,55.2259,31.6468,337.8257,196.1658,0,U,64202,999,761,0,-.73E-6,0
COSMOS 2596 (708K),2025-206B,2026-06-07T03:14:38.992992,2.13100798,.00111316,64.6408,315.3359,313.3612,47.4600,0,U,65590,999,570,0,-.3E-6,0
GSAT0233 (GALILEO 33),2025-302A,2026-06-06T15:54:07.553088,1.70474269,.0001324,54.3305,102.4316,236.8649,300.4651,0,U,67160,999,294,0,.23E-6,0
GSAT0234 (GALILEO 34),2025-302C,2026-06-03T20:33:01.967328,1.70474390,.0003271,54.3286,102.5103,302.9496,132.1778,0,U,67162,999,295,0,.1E-6,0
GPS BIII-9  (PRN 20),2026-017A,2026-06-05T05:33:50.638176,2.00571538,.00226637,55.0812,89.2351,257.5579,102.1794,0,U,67588,999,43137,0,.4E-7,0
GPS BIII-10 (PRN 13),2026-087A,2026-06-05T10:33:10.277856,2.00569475,.00209602,54.9639,208.2526,107.2589,248.2165,0,U,68791,999,59,0,.45E-6,0
